[{"OBJECT_NAME":"STARLINK-30496","OBJECT_ID":"2023-147G","EPOCH":"2026-03-09T22:00:01.999584","MEAN_MOTION":15.26720352,"ECCENTRICITY":0.00015341,"INCLINATION":43.0024,"RA_OF_ASC_NODE":323.8675,"ARG_OF_PERICENTER":268.8891,"MEAN_ANOMALY":82.3061,"EPHEMERIS_TYPE":0,"CLASSIFICATION_TYPE":"U","NORAD_CAT_ID":57919,"ELEMENT_SET_NO":999,"REV_AT_EPOCH":578,"BSTAR":-0.0017400663,"MEAN_MOTION_DOT":-0.00046614,"MEAN_MOTION_DDOT":0},{"OBJECT_NAME":"OBJECT J","OBJECT_ID":"2025-155J","EPOCH":"2026-03-09T22:09:22.347648","MEAN_MOTION":15.2758258,"ECCENTRICITY":0.00088188,"INCLINATION":97.4475,"RA_OF_ASC_NODE":37.3123,"ARG_OF_PERICENTER":150.071,"MEAN_ANOMALY":210.1035,"EPHEMERIS_TYPE":0,"CLASSIFICATION_TYPE":"U","NORAD_CAT_ID":64884,"ELEMENT_SET_NO":999,"REV_AT_EPOCH":6559,"BSTAR":0.00051444498,"MEAN_MOTION_DOT":0.00013827,"MEAN_MOTION_DDOT":0}]
